{"type": "FeatureCollection", "features": [{"type": "Feature", "properties": {"norad_id": 32275, "name": "COSMOS 2433 (720)", "group": "glo-ops", "lat": 65.54898163816965, "lon": 58.09521446073548, "alt_km": 19135.87273996347, "timestamp": "2025-12-17T21:39:45.949145+00:00", "meta": {"OBJECT_NAME": "COSMOS 2433 (720)", "OBJECT_ID": "2007-052A", "EPOCH": "2025-12-14T23:11:38.718240", "MEAN_MOTION": 2.13103955, "ECCENTRICITY": 0.00054201, "INCLINATION": 65.6819, "RA_OF_ASC_NODE": 322.1305, "ARG_OF_PERICENTER": 253.5649, "MEAN_ANOMALY": 106.3736, "EPHEMERIS_TYPE": 0, "CLASSIFICATION_TYPE": "U", "NORAD_CAT_ID": 32275, "ELEMENT_SET_NO": 999, "REV_AT_EPOCH": 14113, "BSTAR": 0, "MEAN_MOTION_DOT": -6.5e-07, "MEAN_MOTION_DDOT": 0}, "tle": {"line1": "1 32275U 07052A   25348.96642035 -.00000065  00000+0  00000+0 0  9990", "line2": "2 32275  65.6819 322.1305 0005420 253.5649 106.3736  2.13103955141132"}}, "geometry": {"type": "Point", "coordinates": [58.09521446073548, 65.54898163816965]}}, {"type": "Feature", "properties": {"norad_id": 32276, "name": "COSMOS 2432 (719)", "group": "glo-ops", "lat": 33.33291002670337, "lon": -20.570894287962943, "alt_km": 19123.329041499775, "timestamp": "2025-12-17T21:39:45.949168+00:00", "meta": {"OBJECT_NAME": "COSMOS 2432 (719)", "OBJECT_ID": "2007-052B", "EPOCH": "2025-12-15T06:31:38.583840", "MEAN_MOTION": 2.13103103, "ECCENTRICITY": 0.00112605, "INCLINATION": 65.6973, "RA_OF_ASC_NODE": 322.2446, "ARG_OF_PERICENTER": 312.4858, "MEAN_ANOMALY": 226.3212, "EPHEMERIS_TYPE": 0, "CLASSIFICATION_TYPE": "U", "NORAD_CAT_ID": 32276, "ELEMENT_SET_NO": 999, "REV_AT_EPOCH": 14116, "BSTAR": 0, "MEAN_MOTION_DOT": -6.6e-07, "MEAN_MOTION_DDOT": 0}, "tle": {"line1": "1 32276U 07052B   25349.27197435 -.00000066  00000+0  00000+0 0  9996", "line2": "2 32276  65.6973 322.2446 0011260 312.4858 226.3212  2.13103103141167"}}, "geometry": {"type": "Point", "coordinates": [-20.570894287962943, 33.33291002670337]}}, {"type": "Feature", "properties": {"norad_id": 32393, "name": "COSMOS 2434 (721)", "group": "glo-ops", "lat": -15.29419273146564, "lon": -169.53158185811452, "alt_km": 19132.075055098685, "timestamp": "2025-12-17T21:39:45.949181+00:00", "meta": {"OBJECT_NAME": "COSMOS 2434 (721)", "OBJECT_ID": "2007-065A", "EPOCH": "2025-12-15T08:26:38.759136", "MEAN_MOTION": 2.13101367, "ECCENTRICITY": 0.00044341, "INCLINATION": 64.3148, "RA_OF_ASC_NODE": 198.1152, "ARG_OF_PERICENTER": 71.4602, "MEAN_ANOMALY": 114.7825, "EPHEMERIS_TYPE": 0, "CLASSIFICATION_TYPE": "U", "NORAD_CAT_ID": 32393, "ELEMENT_SET_NO": 999, "REV_AT_EPOCH": 13985, "BSTAR": 0, "MEAN_MOTION_DOT": 1.05e-06, "MEAN_MOTION_DDOT": 0}, "tle": {"line1": "1 32393U 07065A   25349.35183749  .00000105  00000+0  00000+0 0  9995", "line2": "2 32393  64.3148 198.1152 0004434  71.4602 114.7825  2.13101367139858"}}, "geometry": {"type": "Point", "coordinates": [-169.53158185811452, -15.29419273146564]}}, {"type": "Feature", "properties": {"norad_id": 32395, "name": "COSMOS 2436 (723)", "group": "glo-ops", "lat": 53.87213719099711, "lon": -23.137408975942925, "alt_km": 19137.159011171294, "timestamp": "2025-12-17T21:39:45.949193+00:00", "meta": {"OBJECT_NAME": "COSMOS 2436 (723)", "OBJECT_ID": "2007-065C", "EPOCH": "2025-12-16T08:11:52.503360", "MEAN_MOTION": 2.13100112, "ECCENTRICITY": 0.00177699, "INCLINATION": 64.3235, "RA_OF_ASC_NODE": 198.1521, "ARG_OF_PERICENTER": 9.2217, "MEAN_ANOMALY": 349.3751, "EPHEMERIS_TYPE": 0, "CLASSIFICATION_TYPE": "U", "NORAD_CAT_ID": 32395, "ELEMENT_SET_NO": 999, "REV_AT_EPOCH": 13982, "BSTAR": 0, "MEAN_MOTION_DOT": 1.1e-06, "MEAN_MOTION_DDOT": 0}, "tle": {"line1": "1 32395U 07065C   25350.34157990  .00000110  00000+0  00000+0 0  9993", "line2": "2 32395  64.3235 198.1521 0017769   9.2217 349.3751  2.13100112139821"}}, "geometry": {"type": "Point", "coordinates": [-23.137408975942925, 53.87213719099711]}}, {"type": "Feature", "properties": {"norad_id": 36111, "name": "COSMOS 2456 (730)", "group": "glo-ops", "lat": 35.40606676967182, "lon": -122.25349965941908, "alt_km": 19133.01803446606, "timestamp": "2025-12-17T21:39:45.949204+00:00", "meta": {"OBJECT_NAME": "COSMOS 2456 (730)", "OBJECT_ID": "2009-070A", "EPOCH": "2025-12-16T18:52:21.859968", "MEAN_MOTION": 2.13103663, "ECCENTRICITY": 0.00031004, "INCLINATION": 64.903, "RA_OF_ASC_NODE": 77.1993, "ARG_OF_PERICENTER": 298.2574, "MEAN_ANOMALY": 65.6059, "EPHEMERIS_TYPE": 0, "CLASSIFICATION_TYPE": "U", "NORAD_CAT_ID": 36111, "ELEMENT_SET_NO": 999, "REV_AT_EPOCH": 12454, "BSTAR": 0, "MEAN_MOTION_DOT": -5.4e-07, "MEAN_MOTION_DDOT": 0}, "tle": {"line1": "1 36111U 09070A   25350.78636412 -.00000054  00000+0  00000+0 0  9998", "line2": "2 36111  64.9030  77.1993 0003100 298.2574  65.6059  2.13103663124545"}}, "geometry": {"type": "Point", "coordinates": [-122.25349965941908, 35.40606676967182]}}, {"type": "Feature", "properties": {"norad_id": 36112, "name": "COSMOS 2457 (733)", "group": "glo-ops", "lat": -64.90516923904322, "lon": -14.47571145211122, "alt_km": 19140.50384497434, "timestamp": "2025-12-17T21:39:45.949224+00:00", "meta": {"OBJECT_NAME": "COSMOS 2457 (733)", "OBJECT_ID": "2009-070B", "EPOCH": "2025-12-17T13:03:42.379200", "MEAN_MOTION": 2.13100979, "ECCENTRICITY": 0.00046214, "INCLINATION": 64.8886, "RA_OF_ASC_NODE": 77.0209, "ARG_OF_PERICENTER": 159.9242, "MEAN_ANOMALY": 194.4541, "EPHEMERIS_TYPE": 0, "CLASSIFICATION_TYPE": "U", "NORAD_CAT_ID": 36112, "ELEMENT_SET_NO": 999, "REV_AT_EPOCH": 12455, "BSTAR": 0, "MEAN_MOTION_DOT": -4.8e-07, "MEAN_MOTION_DDOT": 0}, "tle": {"line1": "1 36112U 09070B   25351.54424050 -.00000048  00000+0  00000+0 0  9990", "line2": "2 36112  64.8886  77.0209 0004621 159.9242 194.4541  2.13100979124552"}}, "geometry": {"type": "Point", "coordinates": [-14.47571145211122, -64.90516923904322]}}, {"type": "Feature", "properties": {"norad_id": 36402, "name": "COSMOS 2460 (732)", "group": "glo-ops", "lat": -65.49454234258226, "lon": -132.05957702321015, "alt_km": 19129.45539548201, "timestamp": "2025-12-17T21:39:45.949235+00:00", "meta": {"OBJECT_NAME": "COSMOS 2460 (732)", "OBJECT_ID": "2010-007C", "EPOCH": "2025-12-15T05:47:00.728160", "MEAN_MOTION": 2.13106127, "ECCENTRICITY": 0.00026664, "INCLINATION": 65.5278, "RA_OF_ASC_NODE": 320.6882, "ARG_OF_PERICENTER": 275.3459, "MEAN_ANOMALY": 111.58, "EPHEMERIS_TYPE": 0, "CLASSIFICATION_TYPE": "U", "NORAD_CAT_ID": 36402, "ELEMENT_SET_NO": 999, "REV_AT_EPOCH": 12281, "BSTAR": 0, "MEAN_MOTION_DOT": -6.7e-07, "MEAN_MOTION_DDOT": 0}, "tle": {"line1": "1 36402U 10007C   25349.24098065 -.00000067  00000+0  00000+0 0  9992", "line2": "2 36402  65.5278 320.6882 0002666 275.3459 111.5800  2.13106127122817"}}, "geometry": {"type": "Point", "coordinates": [-132.05957702321015, -65.49454234258226]}}, {"type": "Feature", "properties": {"norad_id": 37867, "name": "COSMOS 2476 (744)", "group": "glo-ops", "lat": 42.893570676790766, "lon": 104.44165427893567, "alt_km": 19186.662027864284, "timestamp": "2025-12-17T21:39:45.949246+00:00", "meta": {"OBJECT_NAME": "COSMOS 2476 (744)", "OBJECT_ID": "2011-064A", "EPOCH": "2025-12-17T08:37:38.728128", "MEAN_MOTION": 2.13103706, "ECCENTRICITY": 0.00243783, "INCLINATION": 65.1645, "RA_OF_ASC_NODE": 79.0153, "ARG_OF_PERICENTER": 234.8774, "MEAN_ANOMALY": 116.9996, "EPHEMERIS_TYPE": 0, "CLASSIFICATION_TYPE": "U", "NORAD_CAT_ID": 37867, "ELEMENT_SET_NO": 999, "REV_AT_EPOCH": 10988, "BSTAR": 0, "MEAN_MOTION_DOT": -4.8e-07, "MEAN_MOTION_DDOT": 0}, "tle": {"line1": "1 37867U 11064A   25351.35947602 -.00000048  00000+0  00000+0 0  9996", "line2": "2 37867  65.1645  79.0153 0024378 234.8774 116.9996  2.13103706109884"}}, "geometry": {"type": "Point", "coordinates": [104.44165427893567, 42.893570676790766]}}, {"type": "Feature", "properties": {"norad_id": 37868, "name": "COSMOS 2477 (745)", "group": "glo-ops", "lat": -43.634397087852776, "lon": -74.7733690158076, "alt_km": 19081.38163266744, "timestamp": "2025-12-17T21:39:45.949257+00:00", "meta": {"OBJECT_NAME": "COSMOS 2477 (745)", "OBJECT_ID": "2011-064B", "EPOCH": "2025-12-15T06:06:12.573216", "MEAN_MOTION": 2.1310289, "ECCENTRICITY": 0.00211455, "INCLINATION": 65.1707, "RA_OF_ASC_NODE": 79.1637, "ARG_OF_PERICENTER": 234.5873, "MEAN_ANOMALY": 123.1925, "EPHEMERIS_TYPE": 0, "CLASSIFICATION_TYPE": "U", "NORAD_CAT_ID": 37868, "ELEMENT_SET_NO": 999, "REV_AT_EPOCH": 10983, "BSTAR": 0, "MEAN_MOTION_DOT": -5.6e-07, "MEAN_MOTION_DDOT": 0}, "tle": {"line1": "1 37868U 11064B   25349.25431219 -.00000056  00000+0  00000+0 0  9994", "line2": "2 37868  65.1707  79.1637 0021145 234.5873 123.1925  2.13102890109838"}}, "geometry": {"type": "Point", "coordinates": [-74.7733690158076, -43.634397087852776]}}, {"type": "Feature", "properties": {"norad_id": 37869, "name": "COSMOS 2475 (743)", "group": "glo-ops", "lat": -4.685989967211772, "lon": -98.72683093705704, "alt_km": 19101.002346085606, "timestamp": "2025-12-17T21:39:45.949267+00:00", "meta": {"OBJECT_NAME": "COSMOS 2475 (743)", "OBJECT_ID": "2011-064C", "EPOCH": "2025-12-16T17:15:16.173216", "MEAN_MOTION": 2.1310159, "ECCENTRICITY": 0.00263578, "INCLINATION": 65.1784, "RA_OF_ASC_NODE": 79.1342, "ARG_OF_PERICENTER": 248.7608, "MEAN_ANOMALY": 108.5583, "EPHEMERIS_TYPE": 0, "CLASSIFICATION_TYPE": "U", "NORAD_CAT_ID": 37869, "ELEMENT_SET_NO": 999, "REV_AT_EPOCH": 10987, "BSTAR": 0, "MEAN_MOTION_DOT": -5.2e-07, "MEAN_MOTION_DDOT": 0}, "tle": {"line1": "1 37869U 11064C   25350.71893719 -.00000052  00000+0  00000+0 0  9991", "line2": "2 37869  65.1784  79.1342 0026357 248.7608 108.5583  2.13101590109877"}}, "geometry": {"type": "Point", "coordinates": [-98.72683093705704, -4.685989967211772]}}]}